COSMOS 2251 DEB         
1 35646U 93036ANM 17345.37121593  .00000026  00000-0  49980-4 0  9998
2 35646  73.8722 351.2557 0476145 237.5326 187.0575 13.36578283427640
